CCSDS_OMM_VERS = 2.0
CREATION_DATE  = 
ORIGINATOR     = 

OBJECT_NAME    = STARLINK-35810
OBJECT_ID      = 2025-268U
CENTER_NAME    = EARTH
REF_FRAME      = TEME
TIME_SYSTEM    = UTC
MEAN_ELEMENT_THEORY = SGP/SGP4

EPOCH          = 2025-12-02T20:00:03.000384
MEAN_MOTION    = 15.75193846
ECCENTRICITY   = .0001845
INCLINATION    = 42.9981
RA_OF_ASC_NODE = 179.8200
ARG_OF_PERICENTER = 280.4636
MEAN_ANOMALY   = 333.8488

EPHEMERIS_TYPE = 0
CLASSIFICATION_TYPE = U
NORAD_CAT_ID   = 66575
ELEMENT_SET_NO = 999
REV_AT_EPOCH   = 307
BSTAR          = -.17424E-2
MEAN_MOTION_DOT = -.261778E-2
MEAN_MOTION_DDOT = 0

CCSDS_OMM_VERS = 2.0
CREATION_DATE  = 
ORIGINATOR     = 

OBJECT_NAME    = STARLINK-35814
OBJECT_ID      = 2025-268V
CENTER_NAME    = EARTH
REF_FRAME      = TEME
TIME_SYSTEM    = UTC
MEAN_ELEMENT_THEORY = SGP/SGP4

EPOCH          = 2025-12-02T20:00:03.000384
MEAN_MOTION    = 15.75155372
ECCENTRICITY   = .0001703
INCLINATION    = 42.9981
RA_OF_ASC_NODE = 179.8150
ARG_OF_PERICENTER = 279.4688
MEAN_ANOMALY   = 336.7877

EPHEMERIS_TYPE = 0
CLASSIFICATION_TYPE = U
NORAD_CAT_ID   = 66576
ELEMENT_SET_NO = 999
REV_AT_EPOCH   = 307
BSTAR          = -.14088E-2
MEAN_MOTION_DOT = -.212616E-2
MEAN_MOTION_DDOT = 0

CCSDS_OMM_VERS = 2.0
CREATION_DATE  = 
ORIGINATOR     = 

OBJECT_NAME    = STARLINK-35815
OBJECT_ID      = 2025-268W
CENTER_NAME    = EARTH
REF_FRAME      = TEME
TIME_SYSTEM    = UTC
MEAN_ELEMENT_THEORY = SGP/SGP4

EPOCH          = 2025-12-02T20:00:03.000384
MEAN_MOTION    = 15.75063269
ECCENTRICITY   = .0001302
INCLINATION    = 42.9982
RA_OF_ASC_NODE = 179.8102
ARG_OF_PERICENTER = 279.1086
MEAN_ANOMALY   = 339.0967

EPHEMERIS_TYPE = 0
CLASSIFICATION_TYPE = U
NORAD_CAT_ID   = 66577
ELEMENT_SET_NO = 999
REV_AT_EPOCH   = 307
BSTAR          = -.40439E-3
MEAN_MOTION_DOT = -.62203E-3
MEAN_MOTION_DDOT = 0

CCSDS_OMM_VERS = 2.0
CREATION_DATE  = 
ORIGINATOR     = 

OBJECT_NAME    = STARLINK-35743
OBJECT_ID      = 2025-268X
CENTER_NAME    = EARTH
REF_FRAME      = TEME
TIME_SYSTEM    = UTC
MEAN_ELEMENT_THEORY = SGP/SGP4

EPOCH          = 2025-12-02T20:00:03.000384
MEAN_MOTION    = 15.75066830
ECCENTRICITY   = .000133
INCLINATION    = 42.9982
RA_OF_ASC_NODE = 179.8054
ARG_OF_PERICENTER = 280.0389
MEAN_ANOMALY   = 340.0870

EPHEMERIS_TYPE = 0
CLASSIFICATION_TYPE = U
NORAD_CAT_ID   = 66578
ELEMENT_SET_NO = 999
REV_AT_EPOCH   = 307
BSTAR          = -.48481E-3
MEAN_MOTION_DOT = -.74383E-3
MEAN_MOTION_DDOT = 0

CCSDS_OMM_VERS = 2.0
CREATION_DATE  = 
ORIGINATOR     = 

OBJECT_NAME    = STARLINK-35868
OBJECT_ID      = 2025-268Y
CENTER_NAME    = EARTH
REF_FRAME      = TEME
TIME_SYSTEM    = UTC
MEAN_ELEMENT_THEORY = SGP/SGP4

EPOCH          = 2025-12-02T20:00:03.000384
MEAN_MOTION    = 15.75002877
ECCENTRICITY   = .0002157
INCLINATION    = 42.9981
RA_OF_ASC_NODE = 179.8004
ARG_OF_PERICENTER = 264.2666
MEAN_ANOMALY   = 357.7931

EPHEMERIS_TYPE = 0
CLASSIFICATION_TYPE = U
NORAD_CAT_ID   = 66579
ELEMENT_SET_NO = 999
REV_AT_EPOCH   = 307
BSTAR          = .29562E-3
MEAN_MOTION_DOT = .45105E-3
MEAN_MOTION_DDOT = 0

CCSDS_OMM_VERS = 2.0
CREATION_DATE  = 
ORIGINATOR     = 

OBJECT_NAME    = STARLINK-35872
OBJECT_ID      = 2025-268Z
CENTER_NAME    = EARTH
REF_FRAME      = TEME
TIME_SYSTEM    = UTC
MEAN_ELEMENT_THEORY = SGP/SGP4

EPOCH          = 2025-12-02T20:00:03.000384
MEAN_MOTION    = 15.74995073
ECCENTRICITY   = .000203
INCLINATION    = 42.9981
RA_OF_ASC_NODE = 179.7958
ARG_OF_PERICENTER = 265.7087
MEAN_ANOMALY   = 358.2743

EPHEMERIS_TYPE = 0
CLASSIFICATION_TYPE = U
NORAD_CAT_ID   = 66580
ELEMENT_SET_NO = 999
REV_AT_EPOCH   = 307
BSTAR          = .35925E-3
MEAN_MOTION_DOT = .54962E-3
MEAN_MOTION_DDOT = 0

CCSDS_OMM_VERS = 2.0
CREATION_DATE  = 
ORIGINATOR     = 

OBJECT_NAME    = STARLINK-35744
OBJECT_ID      = 2025-268AA
CENTER_NAME    = EARTH
REF_FRAME      = TEME
TIME_SYSTEM    = UTC
MEAN_ELEMENT_THEORY = SGP/SGP4

EPOCH          = 2025-12-02T20:00:03.000384
MEAN_MOTION    = 15.75027231
ECCENTRICITY   = .0002013
INCLINATION    = 42.9982
RA_OF_ASC_NODE = 179.7904
ARG_OF_PERICENTER = 267.0072
MEAN_ANOMALY   = 358.8862

EPHEMERIS_TYPE = 0
CLASSIFICATION_TYPE = U
NORAD_CAT_ID   = 66581
ELEMENT_SET_NO = 999
REV_AT_EPOCH   = 302
BSTAR          = -.32248E-5
MEAN_MOTION_DOT = -.973E-5
MEAN_MOTION_DDOT = 0

CCSDS_OMM_VERS = 2.0
CREATION_DATE  = 
ORIGINATOR     = 

OBJECT_NAME    = STARLINK-35746
OBJECT_ID      = 2025-268AB
CENTER_NAME    = EARTH
REF_FRAME      = TEME
TIME_SYSTEM    = UTC
MEAN_ELEMENT_THEORY = SGP/SGP4

EPOCH          = 2025-12-02T20:00:03.000384
MEAN_MOTION    = 15.74944111
ECCENTRICITY   = .0001761
INCLINATION    = 42.9982
RA_OF_ASC_NODE = 179.7857
ARG_OF_PERICENTER = 295.7648
MEAN_ANOMALY   = 332.0559

EPHEMERIS_TYPE = 0
CLASSIFICATION_TYPE = U
NORAD_CAT_ID   = 66582
ELEMENT_SET_NO = 999
REV_AT_EPOCH   = 307
BSTAR          = .95923E-3
MEAN_MOTION_DOT = .148879E-2
MEAN_MOTION_DDOT = 0

CCSDS_OMM_VERS = 2.0
CREATION_DATE  = 
ORIGINATOR     = 

OBJECT_NAME    = STARLINK-35941
OBJECT_ID      = 2025-268AC
CENTER_NAME    = EARTH
REF_FRAME      = TEME
TIME_SYSTEM    = UTC
MEAN_ELEMENT_THEORY = SGP/SGP4

EPOCH          = 2025-12-02T20:00:03.000384
MEAN_MOTION    = 15.74980803
ECCENTRICITY   = .0001756
INCLINATION    = 42.9982
RA_OF_ASC_NODE = 179.7809
ARG_OF_PERICENTER = 285.7544
MEAN_ANOMALY   = 343.9840

EPHEMERIS_TYPE = 0
CLASSIFICATION_TYPE = U
NORAD_CAT_ID   = 66583
ELEMENT_SET_NO = 999
REV_AT_EPOCH   = 307
BSTAR          = .52622E-3
MEAN_MOTION_DOT = .80927E-3
MEAN_MOTION_DDOT = 0

CCSDS_OMM_VERS = 2.0
CREATION_DATE  = 
ORIGINATOR     = 

OBJECT_NAME    = STARLINK-35939
OBJECT_ID      = 2025-268AD
CENTER_NAME    = EARTH
REF_FRAME      = TEME
TIME_SYSTEM    = UTC
MEAN_ELEMENT_THEORY = SGP/SGP4

EPOCH          = 2025-12-02T20:00:03.000384
MEAN_MOTION    = 15.75018215
ECCENTRICITY   = .000164
INCLINATION    = 42.9983
RA_OF_ASC_NODE = 179.7763
ARG_OF_PERICENTER = 281.8890
MEAN_ANOMALY   = 349.7609

EPHEMERIS_TYPE = 0
CLASSIFICATION_TYPE = U
NORAD_CAT_ID   = 66584
ELEMENT_SET_NO = 999
REV_AT_EPOCH   = 307
BSTAR          = .10535E-3
MEAN_MOTION_DOT = .15721E-3
MEAN_MOTION_DDOT = 0

CCSDS_OMM_VERS = 2.0
CREATION_DATE  = 
ORIGINATOR     = 

OBJECT_NAME    = STARLINK-35963
OBJECT_ID      = 2025-268AE
CENTER_NAME    = EARTH
REF_FRAME      = TEME
TIME_SYSTEM    = UTC
MEAN_ELEMENT_THEORY = SGP/SGP4

EPOCH          = 2025-12-02T20:00:03.000384
MEAN_MOTION    = 15.74974020
ECCENTRICITY   = .0002188
INCLINATION    = 42.9982
RA_OF_ASC_NODE = 179.7718
ARG_OF_PERICENTER = 259.6573
MEAN_ANOMALY   = 13.9101

EPHEMERIS_TYPE = 0
CLASSIFICATION_TYPE = U
NORAD_CAT_ID   = 66585
ELEMENT_SET_NO = 999
REV_AT_EPOCH   = 307
BSTAR          = .70425E-3
MEAN_MOTION_DOT = .108802E-2
MEAN_MOTION_DDOT = 0

CCSDS_OMM_VERS = 2.0
CREATION_DATE  = 
ORIGINATOR     = 

OBJECT_NAME    = TJS-21
OBJECT_ID      = 2025-269A
CENTER_NAME    = EARTH
REF_FRAME      = TEME
TIME_SYSTEM    = UTC
MEAN_ELEMENT_THEORY = SGP/SGP4

EPOCH          = 2025-11-22T00:38:56.616288
MEAN_MOTION    = 2.00992210
ECCENTRICITY   = .75179873
INCLINATION    = 51.0366
RA_OF_ASC_NODE = 174.7096
ARG_OF_PERICENTER = 225.0489
MEAN_ANOMALY   = 41.6572

EPHEMERIS_TYPE = 0
CLASSIFICATION_TYPE = U
NORAD_CAT_ID   = 66586
ELEMENT_SET_NO = 999
REV_AT_EPOCH   = 2
BSTAR          = .53569978E-3
MEAN_MOTION_DOT = .3197E-4
MEAN_MOTION_DDOT = 0

