STARLINK-35810          
1 66575U 25268U   25336.83336806 -.00261778  00000+0 -17424-2 0  9990
2 66575  42.9981 179.8200 0001845 280.4636 333.8488 15.75193846  3074
STARLINK-35814          
1 66576U 25268V   25336.83336806 -.00212616  00000+0 -14088-2 0  9991
2 66576  42.9981 179.8150 0001703 279.4688 336.7877 15.75155372  3073
STARLINK-35815          
1 66577U 25268W   25336.83336806 -.00062203  00000+0 -40439-3 0  9997
2 66577  42.9982 179.8102 0001302 279.1086 339.0967 15.75063269  3075
STARLINK-35743          
1 66578U 25268X   25336.83336806 -.00074383  00000+0 -48481-3 0  9995
2 66578  42.9982 179.8054 0001330 280.0389 340.0870 15.75066830  3072
STARLINK-35868          
1 66579U 25268Y   25336.83336806  .00045105  00000+0  29562-3 0  9993
2 66579  42.9981 179.8004 0002157 264.2666 357.7931 15.75002877  3071
STARLINK-35872          
1 66580U 25268Z   25336.83336806  .00054962  00000+0  35925-3 0  9996
2 66580  42.9981 179.7958 0002030 265.7087 358.2743 15.74995073  3078
STARLINK-35744          
1 66581U 25268AA  25336.83336806 -.00000973  00000+0 -32248-5 0  9999
2 66581  42.9982 179.7904 0002013 267.0072 358.8862 15.75027231  3027
STARLINK-35746          
1 66582U 25268AB  25336.83336806  .00148879  00000+0  95923-3 0  9993
2 66582  42.9982 179.7857 0001761 295.7648 332.0559 15.74944111  3077
STARLINK-35941          
1 66583U 25268AC  25336.83336806  .00080927  00000+0  52622-3 0  9992
2 66583  42.9982 179.7809 0001756 285.7544 343.9840 15.74980803  3075
STARLINK-35939          
1 66584U 25268AD  25336.83336806  .00015721  00000+0  10535-3 0  9990
2 66584  42.9983 179.7763 0001640 281.8890 349.7609 15.75018215  3076
STARLINK-35963          
1 66585U 25268AE  25336.83336806  .00108802  00000+0  70425-3 0  9998
2 66585  42.9982 179.7718 0002188 259.6573  13.9101 15.74974020  3076
TJS-21                  
1 66586U 25269A   25326.02704417  .00003197  00000+0  53570-3 0  9990
2 66586  51.0366 174.7096 7517987 225.0489  41.6572  2.00992210    24
